SAR-LUPE 2              
1 31797U 07030A   26178.28319387  .00039511  00000+0  66475-3 0  9991
2 31797  98.1052 283.9779 0002618 180.5216 179.6032 15.51634991 58509
SAPPHIRE                
1 39088U 13009C   26178.27051954  .00000108  00000+0  52798-4 0  9991
2 39088  98.4263 357.4869 0010476 213.8340 146.2179 14.35243209698021
PRAETORIAN SDA_602      
1 65565U 25203A   26176.91435568  .00000104  00000+0  82306-4 0  9999
2 65565  81.3029   2.6841 0006264 162.2891 197.8485 13.84278827 39903
PRAETORIAN SDA_603      
1 65566U 25203B   26178.24478542  .00000193  00000+0  16361-3 0  9992
2 65566  81.3038   1.3739 0009970 160.8221 199.3313 13.83906438 40098
PRAETORIAN SDA_604      
1 65567U 25203C   26178.27073161  .00000088  00000+0  69906-4 0  9991
2 65567  81.3052   1.7782 0005829 164.1718 195.9621 13.83048591 40073
PRAETORIAN SDA_605      
1 65568U 25203D   26178.01628123  .00000053  00000+0  37724-4 0  9993
2 65568  81.3018   1.6669 0008627 156.9662 203.1883 13.83434938 40059
PRAETORIAN SDA_606      
1 65569U 25203E   26178.21753687  .00000036  00000+0  22274-4 0  9995
2 65569  81.3052   1.7099 0006496 159.0132 201.1292 13.83198553 40078
PRAETORIAN SDA_607      
1 65570U 25203F   26178.21767609  .00000164  00000+0  13593-3 0  9991
2 65570  81.3038   1.3538 0009190 161.0543 199.0957 13.84286722 40093
PRAETORIAN SDA_608      
1 65571U 25203G   26178.27076311  .00000059  00000+0  42861-4 0  9995
2 65571  81.3005   1.4709 0006346 163.4527 196.6838 13.83817515 40086
PRAETORIAN SDA_609      
1 65572U 25203H   26178.27281466  .00000212  00000+0  17936-3 0  9990
2 65572  81.3050   1.4503 0007286 158.0408 202.1062 13.84209543 40091
PRAETORIAN SDA_610      
1 65573U 25203J   26178.03393728  .00000080  00000+0  61646-4 0  9991
2 65573  81.3006   1.6490 0007091 163.6762 196.4624 13.83768465 40056
PRAETORIAN SDA_611      
1 65574U 25203K   26178.25499001  .00000268  00000+0  23301-3 0  9990
2 65574  81.3003   1.6181 0005827 166.8311 193.2998 13.83310215 40078
PRAETORIAN SDA_612      
1 65575U 25203L   26177.79860335  .00000164  00000+0  13482-3 0  9995
2 65575  81.3029   1.6023 0009629 161.1403 199.0113 13.85039752 40042
PRAETORIAN SDA_613      
1 65576U 25203M   26178.26569312  .00000071  00000+0  54442-4 0  9999
2 65576  81.2998   1.6121 0006116 157.2063 202.9366 13.82765992 40078
PRAETORIAN SDA_614      
1 65577U 25203N   26178.22311287  .00000059  00000+0  41515-4 0  9995
2 65577  81.3013   1.2886 0007575 156.9524 203.1975 13.84778033 40105
PRAETORIAN SDA_615      
1 65578U 25203P   26178.20247247  .00000246  00000+0  20924-3 0  9996
2 65578  81.3024   1.2778 0009475 158.3857 201.7701 13.84437117 40098
PRAETORIAN SDA_616      
1 65579U 25203Q   26177.96517664  .00000231  00000+0  19961-3 0  9995
2 65579  81.3063   2.0369 0005801 165.9908 194.1410 13.83268503 40033
PRAETORIAN SDA_617      
1 65580U 25203R   26178.20462935  .00000054  00000+0  38335-4 0  9995
2 65580  81.3035   1.6459 0007830 157.4072 202.7431 13.83150571 40079
PRAETORIAN SDA_618      
1 65581U 25203S   26177.44424983  .00000028  00000+0  14181-4 0  9996
2 65581  81.3021   1.9070 0010122 162.7241 197.4262 13.84669977 39999
PRAETORIAN SDA_619      
1 65582U 25203T   26178.20900908  .00000222  00000+0  18944-3 0  9994
2 65582  81.3047   1.5106 0008613 158.6095 201.5423 13.83806477 40712
PRAETORIAN SDA_620      
1 65583U 25203U   26178.23835542  .00000112  00000+0  90970-4 0  9997
2 65583  81.3029   1.5060 0008077 154.7340 205.4213 13.83619149 40084
PRAETORIAN SDA_621      
1 65584U 25203V   26178.21081265  .00000071  00000+0  52937-4 0  9996
2 65584  81.3020   1.4454 0007897 152.3319 207.8259 13.83802172 40087
PRAETORIAN SDA_601      
1 65585U 25203W   26178.25836777  .00000206  00000+0  17760-3 0  9991
2 65585  81.3039   1.7091 0005893 169.0144 191.1142 13.83168767 40073
VICTUS HAZE PUMA        
1 69646U 26142A   26178.28287225  .00004152  00000+0  19088-3 0  9996
2 69646  97.4481  75.7918 0021046 291.2482  68.6505 15.20723634  1200
