OBJECT_NAME,OBJECT_ID,EPOCH,MEAN_MOTION,ECCENTRICITY,INCLINATION,RA_OF_ASC_NODE,ARG_OF_PERICENTER,MEAN_ANOMALY,EPHEMERIS_TYPE,CLASSIFICATION_TYPE,NORAD_CAT_ID,ELEMENT_SET_NO,REV_AT_EPOCH,BSTAR,MEAN_MOTION_DOT,MEAN_MOTION_DDOT
SAR-LUPE 2,2007-030A,2026-06-27T06:47:47.950368,15.51634991,.00026182,98.1052,283.9779,180.5216,179.6032,0,U,31797,999,5850,.66474607E-3,.39511E-3,0
SAPPHIRE,2013-009C,2026-06-27T06:29:32.888256,14.35243209,.00104765,98.4263,357.4869,213.8340,146.2179,0,U,39088,999,69802,.52798448E-4,.108E-5,0
PRAETORIAN SDA_602,2025-203A,2026-06-25T21:56:40.330752,13.84278827,.00062643,81.3029,2.6841,162.2891,197.8485,0,U,65565,999,3990,.82305867E-4,.104E-5,0
PRAETORIAN SDA_603,2025-203B,2026-06-27T05:52:29.460288,13.83906438,.00099707,81.3038,1.3739,160.8221,199.3313,0,U,65566,999,4009,.16361062E-3,.193E-5,0
PRAETORIAN SDA_604,2025-203C,2026-06-27T06:29:51.211104,13.83048591,.00058295,81.3052,1.7782,164.1718,195.9621,0,U,65567,999,4007,.69906048E-4,.88E-6,0
PRAETORIAN SDA_605,2025-203D,2026-06-27T00:23:26.698272,13.83434938,.0008627,81.3018,1.6669,156.9662,203.1883,0,U,65568,999,4005,.37723955E-4,.53E-6,0
PRAETORIAN SDA_606,2025-203E,2026-06-27T05:13:15.185568,13.83198553,.00064962,81.3052,1.7099,159.0132,201.1292,0,U,65569,999,4007,.2227421E-4,.36E-6,0
PRAETORIAN SDA_607,2025-203F,2026-06-27T05:13:27.214176,13.84286722,.00091904,81.3038,1.3538,161.0543,199.0957,0,U,65570,999,4009,.13592578E-3,.164E-5,0
PRAETORIAN SDA_608,2025-203G,2026-06-27T06:29:53.932704,13.83817515,.00063462,81.3005,1.4709,163.4527,196.6838,0,U,65571,999,4008,.42861271E-4,.59E-6,0
PRAETORIAN SDA_609,2025-203H,2026-06-27T06:32:51.186624,13.84209543,.00072867,81.3050,1.4503,158.0408,202.1062,0,U,65572,999,4009,.17935795E-3,.212E-5,0
PRAETORIAN SDA_610,2025-203J,2026-06-27T00:48:52.180992,13.83768465,.00070919,81.3006,1.6490,163.6762,196.4624,0,U,65573,999,4005,.61646183E-4,.8E-6,0
PRAETORIAN SDA_611,2025-203K,2026-06-27T06:07:11.136864,13.83310215,.00058277,81.3003,1.6181,166.8311,193.2998,0,U,65574,999,4007,.23300566E-3,.268E-5,0
PRAETORIAN SDA_612,2025-203L,2026-06-26T19:09:59.329440,13.85039752,.00096291,81.3029,1.6023,161.1403,199.0113,0,U,65575,999,4004,.13481602E-3,.164E-5,0
PRAETORIAN SDA_613,2025-203M,2026-06-27T06:22:35.885568,13.82765992,.00061169,81.2998,1.6121,157.2063,202.9366,0,U,65576,999,4007,.5444238E-4,.71E-6,0
PRAETORIAN SDA_614,2025-203N,2026-06-27T05:21:16.951968,13.84778033,.00075759,81.3013,1.2886,156.9524,203.1975,0,U,65577,999,4010,.41515092E-4,.59E-6,0
PRAETORIAN SDA_615,2025-203P,2026-06-27T04:51:33.621408,13.84437117,.00094751,81.3024,1.2778,158.3857,201.7701,0,U,65578,999,4009,.20923723E-3,.246E-5,0
PRAETORIAN SDA_616,2025-203Q,2026-06-26T23:09:51.261696,13.83268503,.00058012,81.3063,2.0369,165.9908,194.1410,0,U,65579,999,4003,.19961478E-3,.231E-5,0
PRAETORIAN SDA_617,2025-203R,2026-06-27T04:54:39.975840,13.83150571,.00078309,81.3035,1.6459,157.4072,202.7431,0,U,65580,999,4007,.38334868E-4,.54E-6,0
PRAETORIAN SDA_618,2025-203S,2026-06-26T10:39:43.185312,13.84669977,.0010122,81.3021,1.9070,162.7241,197.4262,0,U,65581,999,3999,.14181E-4,.28E-6,0
PRAETORIAN SDA_619,2025-203T,2026-06-27T05:00:58.384512,13.83806477,.00086132,81.3047,1.5106,158.6095,201.5423,0,U,65582,999,4071,.18943969E-3,.222E-5,0
PRAETORIAN SDA_620,2025-203U,2026-06-27T05:43:13.908288,13.83619149,.00080774,81.3029,1.5060,154.7340,205.4213,0,U,65583,999,4008,.90969822E-4,.112E-5,0
PRAETORIAN SDA_621,2025-203V,2026-06-27T05:03:34.212960,13.83802172,.00078974,81.3020,1.4454,152.3319,207.8259,0,U,65584,999,4008,.52937417E-4,.71E-6,0
PRAETORIAN SDA_601,2025-203W,2026-06-27T06:12:02.975328,13.83168767,.00058931,81.3039,1.7091,169.0144,191.1142,0,U,65585,999,4007,.1776002E-3,.206E-5,0
VICTUS HAZE PUMA,2026-142A,2026-06-27T06:47:20.162400,15.20723634,.0021046,97.4481,75.7918,291.2482,68.6505,0,U,69646,999,120,.1908813E-3,.4152E-4,0
